OBJECT_NAME,OBJECT_ID,EPOCH,MEAN_MOTION,ECCENTRICITY,INCLINATION,RA_OF_ASC_NODE,ARG_OF_PERICENTER,MEAN_ANOMALY,EPHEMERIS_TYPE,CLASSIFICATION_TYPE,NORAD_CAT_ID,ELEMENT_SET_NO,REV_AT_EPOCH,BSTAR,MEAN_MOTION_DOT,MEAN_MOTION_DDOT
STARLINK-2513,2021-036AT,2026-07-21T09:08:11.347296,15.31701978,.00011541,53.1582,186.1151,93.3279,266.7854,0,U,48317,999,28870,.39761605E-4,.869E-5,0
STARLINK-2509,2021-036AU,2026-07-21T09:53:01.858848,15.31706927,.00011832,53.1586,199.6574,101.1766,258.9368,0,U,48318,999,28851,.79583854E-4,.2106E-4,0
STARLINK-2512,2021-036AV,2026-07-21T09:39:28.103904,15.31700950,.00012361,53.1583,198.9737,79.4867,280.6273,0,U,48319,999,28852,.32234877E-4,.635E-5,0
STARLINK-2029,2021-036AW,2026-07-21T05:38:24.216000,15.31697246,.00012534,53.1596,200.0638,81.1036,279.0107,0,U,48320,999,28849,.31156843E-4,.602E-5,0
STARLINK-2457,2021-036AX,2026-07-21T09:19:19.197696,15.31706106,.00011692,53.1575,198.9711,83.7274,276.3860,0,U,48321,999,28852,.23550901E-4,.366E-5,0
STARLINK-2515,2021-036AZ,2026-07-21T07:31:55.968672,15.31697985,.0001209,53.1583,199.2924,82.5641,277.5498,0,U,48323,999,28851,.40166812E-4,.881E-5,0
STARLINK-2495,2021-036BB,2026-07-21T07:38:40.355232,15.31703445,.00014299,53.1582,199.3997,90.8691,269.2474,0,U,48325,999,28851,.13197246E-3,.3733E-4,0
STARLINK-2498,2021-036BC,2026-07-21T08:59:40.472736,15.31704860,.00011363,53.1588,199.0704,93.3512,266.7620,0,U,48326,999,28852,.52756954E-3,.16044E-3,0
STARLINK-2502,2021-036BD,2026-07-21T08:52:58.184832,15.31700518,.00011776,53.1589,199.0928,89.0714,271.0423,0,U,48327,999,28852,.64006329E-4,.1622E-4,0
STARLINK-2504,2021-036BE,2026-07-21T06:58:21.843840,15.31707125,.00013026,53.1594,199.3449,89.4671,270.6480,0,U,48328,999,28850,.67783989E-4,.1739E-4,0
STARLINK-2510,2021-036BF,2026-07-21T06:52:06.944736,15.31730884,.0001347,53.1595,199.3595,96.4394,263.6761,0,U,48329,999,28851,-.19029269E-3,-.6271E-4,0
STARLINK-2501,2021-036BG,2026-07-21T00:02:49.940160,15.31700489,.00013654,53.1598,201.1749,103.5758,256.5396,0,U,48330,999,28846,.23983436E-4,.379E-5,0
STARLINK-2514,2021-036BH,2026-07-21T08:59:09.341952,15.35870495,.00060369,53.1569,198.5631,32.9087,327.2291,0,U,48331,999,28853,.74850082E-3,.26226E-3,0
STARLINK-2518,2021-036BK,2026-07-21T05:04:45.753024,15.31707061,.00011115,53.1601,199.7605,87.2834,272.8295,0,U,48333,999,28850,.83246568E-4,.222E-4,0
STARLINK-2470,2021-036BL,2026-07-21T09:39:55.471968,15.31704424,.00011814,53.1586,198.8582,78.9905,281.1229,0,U,48334,999,28853,.44478033E-4,.1015E-4,0
STARLINK-2613,2021-038A,2026-07-21T10:37:05.911392,15.31708977,.00012199,53.1603,95.7836,84.8018,275.3123,0,U,48353,999,28757,.74868431E-4,.1959E-4,0
STARLINK-2674,2021-038B,2026-07-21T02:54:01.173024,15.31715095,.00012194,53.1602,97.3636,90.2264,269.8878,0,U,48354,999,28752,.70260398E-4,.1817E-4,0
STARLINK-2635,2021-038C,2026-07-21T10:23:40.266816,15.31707669,.00013242,53.1593,95.8030,97.0929,263.0223,0,U,48355,999,28757,.51320499E-4,.1228E-4,0
STARLINK-2637,2021-038D,2026-07-20T23:59:34.438560,15.31687067,.00013711,53.1600,98.1174,94.5251,265.5907,0,U,48356,999,28750,-.17647585E-3,-.5835E-4,0
STARLINK-2636,2021-038E,2026-07-21T02:27:09.861408,15.31713129,.00013557,53.1604,97.3987,94.1866,265.9290,0,U,48357,999,28752,.89375133E-4,.241E-4,0
STARLINK-2624,2021-038F,2026-07-21T00:46:29.527680,15.31709531,.00015056,53.1609,97.6831,70.7877,289.3287,0,U,48358,999,28750,.68405119E-4,.1759E-4,0
STARLINK-2628,2021-038G,2026-07-20T23:52:51.430080,15.31715427,.00012159,53.1606,98.2034,87.8213,272.2927,0,U,48359,999,28749,.61858444E-4,.1556E-4,0
STARLINK-2622,2021-038H,2026-07-21T00:39:46.981440,15.31712671,.00012888,53.1596,97.7342,86.6069,273.5079,0,U,48360,999,28750,.25059487E-3,.7422E-4,0
STARLINK-2591,2021-038J,2026-07-21T09:56:51.133344,15.31705183,.00010946,53.1593,95.9232,82.6977,277.4149,0,U,48361,999,28756,.18250981E-3,.5303E-4,0
STARLINK-2578,2021-038K,2026-07-20T23:32:39.383232,15.31716081,.00011807,53.1599,97.9305,95.1444,264.9692,0,U,48362,999,28750,.64988495E-4,.1653E-4,0
STARLINK-2611,2021-038M,2026-07-20T23:35:26.914560,15.31716707,.00014008,53.1595,87.5857,85.4656,274.6506,0,U,48364,999,28765,.12532529E-3,.3528E-4,0
STARLINK-2608,2021-038N,2026-07-20T23:15:19.146240,15.31713783,.00011762,53.1603,87.7090,94.0433,266.0703,0,U,48365,999,28765,.41728976E-4,.93E-5,0
STARLINK-2643,2021-038Q,2026-07-21T15:54:50.042016,15.31712887,.00016683,53.1590,82.0154,92.3511,267.7681,0,U,48367,999,28778,.7629786E-5,-.129E-5,0
STARLINK-2623,2021-038R,2026-07-20T23:48:59.658624,15.31703789,.00013243,53.1614,88.1105,80.5158,279.5993,0,U,48368,999,28764,.35352967E-4,.732E-5,0
STARLINK-2621,2021-038T,2026-07-21T08:52:29.843040,15.31707838,.00011717,53.1592,85.7485,94.7063,265.4072,0,U,48370,999,28770,.95013995E-4,.2585E-4,0
