{"epoch":1784710044,"count":18256,"objects":[{"id":"48317","name":"STARLINK-2513","type":"PAYLOAD","l1":"1 48317U 21036AT  26202.38068689  .00000869  00000-0  39762-4 0  9999","l2":"2 48317  53.1582 186.1151 0001154  93.3279 266.7854 15.31701978288701"},{"id":"48318","name":"STARLINK-2509","type":"PAYLOAD","l1":"1 48318U 21036AU  26202.41182707  .00002106  00000-0  79584-4 0  9994","l2":"2 48318  53.1586 199.6574 0001183 101.1766 258.9368 15.31706927288516"},{"id":"48319","name":"STARLINK-2512","type":"PAYLOAD","l1":"1 48319U 21036AV  26202.40240861  .00000635  00000-0  32235-4 0  9997","l2":"2 48319  53.1583 198.9737 0001236  79.4867 280.6273 15.31700950288523"},{"id":"48320","name":"STARLINK-2029","type":"PAYLOAD","l1":"1 48320U 21036AW  26202.23500250  .00000602  00000-0  31157-4 0  9997","l2":"2 48320  53.1596 200.0638 0001253  81.1036 279.0107 15.31697246288498"},{"id":"48321","name":"STARLINK-2457","type":"PAYLOAD","l1":"1 48321U 21036AX  26202.38841664  .00000366  00000-0  23551-4 0  9997","l2":"2 48321  53.1575 198.9711 0001169  83.7274 276.3860 15.31706106288527"},{"id":"48323","name":"STARLINK-2515","type":"PAYLOAD","l1":"1 48323U 21036AZ  26202.31384223  .00000881  00000-0  40167-4 0  9999","l2":"2 48323  53.1583 199.2924 0001209  82.5641 277.5498 15.31697985288511"},{"id":"48325","name":"STARLINK-2495","type":"PAYLOAD","l1":"1 48325U 21036BB  26202.31852263  .00003733  00000-0  13197-3 0  9996","l2":"2 48325  53.1582 199.3997 0001430  90.8691 269.2474 15.31703445288517"},{"id":"48326","name":"STARLINK-2498","type":"PAYLOAD","l1":"1 48326U 21036BC  26202.37477399  .00016044  00000-0  52757-3 0  9990","l2":"2 48326  53.1588 199.0704 0001136  93.3512 266.7620 15.31704860288528"},{"id":"48327","name":"STARLINK-2502","type":"PAYLOAD","l1":"1 48327U 21036BD  26202.37011788  .00001622  00000-0  64006-4 0  9994","l2":"2 48327  53.1589 199.0928 0001178  89.0714 271.0423 15.31700518288526"},{"id":"48328","name":"STARLINK-2504","type":"PAYLOAD","l1":"1 48328U 21036BE  26202.29053060  .00001739  00000-0  67784-4 0  9990","l2":"2 48328  53.1594 199.3449 0001303  89.4671 270.6480 15.31707125288507"},{"id":"48329","name":"STARLINK-2510","type":"PAYLOAD","l1":"1 48329U 21036BF  26202.28619149 -.00006271  00000-0 -19029-3 0  9992","l2":"2 48329  53.1595 199.3595 0001347  96.4394 263.6761 15.31730884288512"},{"id":"48330","name":"STARLINK-2501","type":"PAYLOAD","l1":"1 48330U 21036BG  26202.00196690  .00000379  00000-0  23983-4 0  9991","l2":"2 48330  53.1598 201.1749 0001365 103.5758 256.5396 15.31700489288461"},{"id":"48331","name":"STARLINK-2514","type":"PAYLOAD","l1":"1 48331U 21036BH  26202.37441368  .00026226  00000-0  74850-3 0  9994","l2":"2 48331  53.1569 198.5631 0006037  32.9087 327.2291 15.35870495288537"},{"id":"48333","name":"STARLINK-2518","type":"PAYLOAD","l1":"1 48333U 21036BK  26202.21164066  .00002220  00000-0  83247-4 0  9995","l2":"2 48333  53.1601 199.7605 0001111  87.2834 272.8295 15.31707061288501"},{"id":"48334","name":"STARLINK-2470","type":"PAYLOAD","l1":"1 48334U 21036BL  26202.40272537  .00001015  00000-0  44478-4 0  9994","l2":"2 48334  53.1586 198.8582 0001181  78.9905 281.1229 15.31704424288534"},{"id":"48353","name":"STARLINK-2613","type":"PAYLOAD","l1":"1 48353U 21038A   26202.44242953  .00001959  00000-0  74868-4 0  9993","l2":"2 48353  53.1603  95.7836 0001220  84.8018 275.3123 15.31708977287575"},{"id":"48354","name":"STARLINK-2674","type":"PAYLOAD","l1":"1 48354U 21038B   26202.12084691  .00001817  00000-0  70260-4 0  9997","l2":"2 48354  53.1602  97.3636 0001219  90.2264 269.8878 15.31715095287522"},{"id":"48355","name":"STARLINK-2635","type":"PAYLOAD","l1":"1 48355U 21038C   26202.43310494  .00001228  00000-0  51320-4 0  9997","l2":"2 48355  53.1593  95.8030 0001324  97.0929 263.0223 15.31707669287576"},{"id":"48356","name":"STARLINK-2637","type":"PAYLOAD","l1":"1 48356U 21038D   26201.99970415 -.00005835  00000-0 -17648-3 0  9997","l2":"2 48356  53.1600  98.1174 0001371  94.5251 265.5907 15.31687067287501"},{"id":"48357","name":"STARLINK-2636","type":"PAYLOAD","l1":"1 48357U 21038E   26202.10219747  .00002410  00000-0  89375-4 0  9997","l2":"2 48357  53.1604  97.3987 0001356  94.1866 265.9290 15.31713129287520"},{"id":"48358","name":"STARLINK-2624","type":"PAYLOAD","l1":"1 48358U 21038F   26202.03228620  .00001759  00000-0  68405-4 0  9996","l2":"2 48358  53.1609  97.6831 0001506  70.7877 289.3287 15.31709531287502"},{"id":"48359","name":"STARLINK-2628","type":"PAYLOAD","l1":"1 48359U 21038G   26201.99503970  .00001556  00000-0  61858-4 0  9995","l2":"2 48359  53.1606  98.2034 0001216  87.8213 272.2927 15.31715427287494"},{"id":"48360","name":"STARLINK-2622","type":"PAYLOAD","l1":"1 48360U 21038H   26202.02762710  .00007422  00000-0  25059-3 0  9991","l2":"2 48360  53.1596  97.7342 0001289  86.6069 273.5079 15.31712671287508"},{"id":"48361","name":"STARLINK-2591","type":"PAYLOAD","l1":"1 48361U 21038J   26202.41448071  .00005303  00000-0  18251-3 0  9998","l2":"2 48361  53.1593  95.9232 0001095  82.6977 277.4149 15.31705183287560"},{"id":"48362","name":"STARLINK-2578","type":"PAYLOAD","l1":"1 48362U 21038K   26201.98101138  .00001653  00000-0  64988-4 0  9993","l2":"2 48362  53.1599  97.9305 0001181  95.1444 264.9692 15.31716081287501"},{"id":"48364","name":"STARLINK-2611","type":"PAYLOAD","l1":"1 48364U 21038M   26201.98295040  .00003528  00000-0  12533-3 0  9992","l2":"2 48364  53.1595  87.5857 0001401  85.4656 274.6506 15.31716707287651"},{"id":"48365","name":"STARLINK-2608","type":"PAYLOAD","l1":"1 48365U 21038N   26201.96897160  .00000930  00000-0  41729-4 0  9996","l2":"2 48365  53.1603  87.7090 0001176  94.0433 266.0703 15.31713783287656"},{"id":"48367","name":"STARLINK-2643","type":"PAYLOAD","l1":"1 48367U 21038Q   26202.66307919 -.00000129  00000-0  76298-5 0  9995","l2":"2 48367  53.1590  82.0154 0001668  92.3511 267.7681 15.31712887287787"},{"id":"48368","name":"STARLINK-2623","type":"PAYLOAD","l1":"1 48368U 21038R   26201.99235716  .00000732  00000-0  35353-4 0  9991","l2":"2 48368  53.1614  88.1105 0001324  80.5158 279.5993 15.31703789287646"},{"id":"48370","name":"STARLINK-2621","type":"PAYLOAD","l1":"1 48370U 21038T   26202.36978985  .00002585  00000-0  95014-4 0  9996","l2":"2 48370  53.1592  85.7485 0001172  94.7063 265.4072 15.31707838287709"}]}